SBSS (USA 216)          
1 37168U 10048A   26068.88624904  .00004946  00000+0  24191-3 0  9993
2 37168  97.7474 312.3885 0082264 184.8326 306.5835 15.15724210837421
STARLINK-2646           
1 48642U 21044E   26068.41951628  .00009762  00000+0  34111-3 0  9999
2 48642  53.1580 115.1995 0001329  78.8022 281.3129 15.30215302263785
